{
  "type": "FeatureCollection",
  "features": [
    {
      "type": "Feature",
      "properties": {
        "norad_id": 34022,
        "name": "COSMOS 2251 DEB",
        "group": "cosmos-2251-debris",
        "lat": -46.608248404848524,
        "lon": -111.86663201417583,
        "alt_km": 752.9597879215444,
        "timestamp": "2025-12-15T11:38:37.545569+00:00",
        "meta_object_name": "COSMOS 2251 DEB",
        "meta_object_id": "1993-036HH",
        "meta_epoch": "2025-12-14T21:09:15.287616",
        "meta_mean_motion": 14.38966684,
        "meta_eccentricity": 0.00228017,
        "meta_inclination": 74.0542,
        "meta_ra_of_asc_node": 266.8487,
        "meta_arg_of_pericenter": 331.4647,
        "meta_mean_anomaly": 93.3803,
        "meta_ephemeris_type": 0,
        "meta_classification_type": "U",
        "meta_norad_cat_id": 34022,
        "meta_element_set_no": 999,
        "meta_rev_at_epoch": 88226,
        "meta_bstar": 0.00024904499,
        "meta_mean_motion_dot": 7.44e-06,
        "meta_mean_motion_ddot": 0,
        "tle_line1": "1 34022U 93036HH  25348.88142694  .00000744  00000+0  24904-3 0  9992",
        "tle_line2": "2 34022  74.0542 266.8487 0022801 331.4647  93.3803 14.38966684882264"
      },
      "geometry": {
        "type": "Point",
        "coordinates": [
          -111.86663201417583,
          -46.608248404848524
        ]
      }
    },
    {
      "type": "Feature",
      "properties": {
        "norad_id": 34023,
        "name": "COSMOS 2251 DEB",
        "group": "cosmos-2251-debris",
        "lat": -61.529007998289956,
        "lon": 98.54959603894918,
        "alt_km": 764.7428464139293,
        "timestamp": "2025-12-15T11:38:37.545579+00:00",
        "meta_object_name": "COSMOS 2251 DEB",
        "meta_object_id": "1993-036HJ",
        "meta_epoch": "2025-12-14T19:49:21.298944",
        "meta_mean_motion": 14.40566288,
        "meta_eccentricity": 0.00185466,
        "meta_inclination": 74.0247,
        "meta_ra_of_asc_node": 247.8825,
        "meta_arg_of_pericenter": 343.222,
        "meta_mean_anomaly": 85.7203,
        "meta_ephemeris_type": 0,
        "meta_classification_type": "U",
        "meta_norad_cat_id": 34023,
        "meta_element_set_no": 999,
        "meta_rev_at_epoch": 88244,
        "meta_bstar": 0.00038284419,
        "meta_mean_motion_dot": 1.196e-05,
        "meta_mean_motion_ddot": 0,
        "tle_line1": "1 34023U 93036HJ  25348.82594096  .00001196  00000+0  38284-3 0  9992",
        "tle_line2": "2 34023  74.0247 247.8825 0018546 343.2220  85.7203 14.40566288882449"
      },
      "geometry": {
        "type": "Point",
        "coordinates": [
          98.54959603894918,
          -61.529007998289956
        ]
      }
    },
    {
      "type": "Feature",
      "properties": {
        "norad_id": 34024,
        "name": "COSMOS 2251 DEB",
        "group": "cosmos-2251-debris",
        "lat": -23.72177050990523,
        "lon": 138.18267916943503,
        "alt_km": 792.7081951087794,
        "timestamp": "2025-12-15T11:38:37.545588+00:00",
        "meta_object_name": "COSMOS 2251 DEB",
        "meta_object_id": "1993-036HK",
        "meta_epoch": "2025-12-14T21:24:49.932576",
        "meta_mean_motion": 14.35398819,
        "meta_eccentricity": 0.0021131,
        "meta_inclination": 74.0465,
        "meta_ra_of_asc_node": 312.0479,
        "meta_arg_of_pericenter": 2.2569,
        "meta_mean_anomaly": 19.8628,
        "meta_ephemeris_type": 0,
        "meta_classification_type": "U",
        "meta_norad_cat_id": 34024,
        "meta_element_set_no": 999,
        "meta_rev_at_epoch": 88055,
        "meta_bstar": 0.00021240296,
        "meta_mean_motion_dot": 5.85e-06,
        "meta_mean_motion_ddot": 0,
        "tle_line1": "1 34024U 93036HK  25348.89224459  .00000585  00000+0  21240-3 0  9998",
        "tle_line2": "2 34024  74.0465 312.0479 0021131   2.2569  19.8628 14.35398819880550"
      },
      "geometry": {
        "type": "Point",
        "coordinates": [
          138.18267916943503,
          -23.72177050990523
        ]
      }
    },
    {
      "type": "Feature",
      "properties": {
        "norad_id": 34026,
        "name": "COSMOS 2251 DEB",
        "group": "cosmos-2251-debris",
        "lat": 60.20818918330526,
        "lon": 122.13297624230435,
        "alt_km": 987.8179657717346,
        "timestamp": "2025-12-15T11:38:37.545598+00:00",
        "meta_object_name": "COSMOS 2251 DEB",
        "meta_object_id": "1993-036HM",
        "meta_epoch": "2025-12-14T09:26:09.164832",
        "meta_mean_motion": 13.65311952,
        "meta_eccentricity": 0.0350446,
        "meta_inclination": 73.7669,
        "meta_ra_of_asc_node": 334.5359,
        "meta_arg_of_pericenter": 204.305,
        "meta_mean_anomaly": 309.6659,
        "meta_ephemeris_type": 0,
        "meta_classification_type": "U",
        "meta_norad_cat_id": 34026,
        "meta_element_set_no": 999,
        "meta_rev_at_epoch": 83554,
        "meta_bstar": 0.0008138152,
        "meta_mean_motion_dot": 9.83e-06,
        "meta_mean_motion_ddot": 0,
        "tle_line1": "1 34026U 93036HM  25348.39316163  .00000983  00000+0  81382-3 0  9994",
        "tle_line2": "2 34026  73.7669 334.5359 0350446 204.3050 309.6659 13.65311952835542"
      },
      "geometry": {
        "type": "Point",
        "coordinates": [
          122.13297624230435,
          60.20818918330526
        ]
      }
    },
    {
      "type": "Feature",
      "properties": {
        "norad_id": 34028,
        "name": "COSMOS 2251 DEB",
        "group": "cosmos-2251-debris",
        "lat": 45.63100804191369,
        "lon": 0.23239369222426987,
        "alt_km": 1032.8251190081492,
        "timestamp": "2025-12-15T11:38:37.545610+00:00",
        "meta_object_name": "COSMOS 2251 DEB",
        "meta_object_id": "1993-036HP",
        "meta_epoch": "2025-12-14T18:06:15.829632",
        "meta_mean_motion": 13.20624343,
        "meta_eccentricity": 0.0543637,
        "meta_inclination": 73.8834,
        "meta_ra_of_asc_node": 344.1615,
        "meta_arg_of_pericenter": 121.6641,
        "meta_mean_anomaly": 59.1526,
        "meta_ephemeris_type": 0,
        "meta_classification_type": "U",
        "meta_norad_cat_id": 34028,
        "meta_element_set_no": 999,
        "meta_rev_at_epoch": 81034,
        "meta_bstar": 0.00031742376,
        "meta_mean_motion_dot": 2.64e-06,
        "meta_mean_motion_ddot": 0,
        "tle_line1": "1 34028U 93036HP  25348.75434988  .00000264  00000+0  31742-3 0  9999",
        "tle_line2": "2 34028  73.8834 344.1615 0543637 121.6641  59.1526 13.20624343810347"
      },
      "geometry": {
        "type": "Point",
        "coordinates": [
          0.23239369222426987,
          45.63100804191369
        ]
      }
    },
    {
      "type": "Feature",
      "properties": {
        "norad_id": 34031,
        "name": "COSMOS 2251 DEB",
        "group": "cosmos-2251-debris",
        "lat": -73.90707801516001,
        "lon": 46.86985588273772,
        "alt_km": 685.8611948934777,
        "timestamp": "2025-12-15T11:38:37.545620+00:00",
        "meta_object_name": "COSMOS 2251 DEB",
        "meta_object_id": "1993-036HS",
        "meta_epoch": "2025-12-14T13:36:37.304352",
        "meta_mean_motion": 14.59714184,
        "meta_eccentricity": 0.00230015,
        "meta_inclination": 74.0124,
        "meta_ra_of_asc_node": 132.2176,
        "meta_arg_of_pericenter": 252.4518,
        "meta_mean_anomaly": 236.8209,
        "meta_ephemeris_type": 0,
        "meta_classification_type": "U",
        "meta_norad_cat_id": 34031,
        "meta_element_set_no": 999,
        "meta_rev_at_epoch": 88592,
        "meta_bstar": 0.0011879891,
        "meta_mean_motion_dot": 5.661e-05,
        "meta_mean_motion_ddot": 0,
        "tle_line1": "1 34031U 93036HS  25348.56709843  .00005661  00000+0  11880-2 0  9993",
        "tle_line2": "2 34031  74.0124 132.2176 0023001 252.4518 236.8209 14.59714184885922"
      },
      "geometry": {
        "type": "Point",
        "coordinates": [
          46.86985588273772,
          -73.90707801516001
        ]
      }
    },
    {
      "type": "Feature",
      "properties": {
        "norad_id": 34035,
        "name": "COSMOS 2251 DEB",
        "group": "cosmos-2251-debris",
        "lat": -1.6613984409310052,
        "lon": -16.49708446456214,
        "alt_km": 691.0780566812,
        "timestamp": "2025-12-15T11:38:37.545630+00:00",
        "meta_object_name": "COSMOS 2251 DEB",
        "meta_object_id": "1993-036HW",
        "meta_epoch": "2025-12-14T09:44:31.043040",
        "meta_mean_motion": 14.51970881,
        "meta_eccentricity": 0.00448206,
        "meta_inclination": 74.0658,
        "meta_ra_of_asc_node": 346.0063,
        "meta_arg_of_pericenter": 347.1333,
        "meta_mean_anomaly": 132.1099,
        "meta_ephemeris_type": 0,
        "meta_classification_type": "U",
        "meta_norad_cat_id": 34035,
        "meta_element_set_no": 999,
        "meta_rev_at_epoch": 87990,
        "meta_bstar": 0.0019119331,
        "meta_mean_motion_dot": 7.801e-05,
        "meta_mean_motion_ddot": 0,
        "tle_line1": "1 34035U 93036HW  25348.40591485  .00007801  00000+0  19119-2 0  9992",
        "tle_line2": "2 34035  74.0658 346.0063 0044820 347.1333 132.1099 14.51970881879903"
      },
      "geometry": {
        "type": "Point",
        "coordinates": [
          -16.49708446456214,
          -1.6613984409310052
        ]
      }
    }
  ]
}